[{"OBJECT_NAME":"STARLINK-36719","OBJECT_ID":"2026-022A","EPOCH":"2026-03-03T01:20:22.114464","MEAN_MOTION":15.75247645,"ECCENTRICITY":6.15e-5,"INCLINATION":97.2823,"RA_OF_ASC_NODE":95.6902,"ARG_OF_PERICENTER":90.0049,"MEAN_ANOMALY":270.1287,"EPHEMERIS_TYPE":0,"CLASSIFICATION_TYPE":"U","NORAD_CAT_ID":67648,"ELEMENT_SET_NO":999,"REV_AT_EPOCH":450,"BSTAR":0.001098,"MEAN_MOTION_DOT":0.00167304,"MEAN_MOTION_DDOT":0},{"OBJECT_NAME":"STARLINK-36342","OBJECT_ID":"2026-022B","EPOCH":"2026-03-03T01:19:21.199008","MEAN_MOTION":15.75234005,"ECCENTRICITY":0.0001311,"INCLINATION":97.2832,"RA_OF_ASC_NODE":95.6918,"ARG_OF_PERICENTER":92.088,"MEAN_ANOMALY":268.0535,"EPHEMERIS_TYPE":0,"CLASSIFICATION_TYPE":"U","NORAD_CAT_ID":67649,"ELEMENT_SET_NO":999,"REV_AT_EPOCH":450,"BSTAR":0.00084307,"MEAN_MOTION_DOT":0.00127759,"MEAN_MOTION_DDOT":0},{"OBJECT_NAME":"STARLINK-36703","OBJECT_ID":"2026-022C","EPOCH":"2026-03-03T01:17:49.600320","MEAN_MOTION":15.75263156,"ECCENTRICITY":0.0001361,"INCLINATION":97.2825,"RA_OF_ASC_NODE":95.6922,"ARG_OF_PERICENTER":95.9088,"MEAN_ANOMALY":264.2333,"EPHEMERIS_TYPE":0,"CLASSIFICATION_TYPE":"U","NORAD_CAT_ID":67650,"ELEMENT_SET_NO":999,"REV_AT_EPOCH":450,"BSTAR":0.0011671,"MEAN_MOTION_DOT":0.00178193,"MEAN_MOTION_DDOT":0},{"OBJECT_NAME":"STARLINK-36696","OBJECT_ID":"2026-022D","EPOCH":"2026-03-03T01:15:17.208000","MEAN_MOTION":15.75263482,"ECCENTRICITY":0.0001407,"INCLINATION":97.2825,"RA_OF_ASC_NODE":95.695,"ARG_OF_PERICENTER":92.8378,"MEAN_ANOMALY":267.3048,"EPHEMERIS_TYPE":0,"CLASSIFICATION_TYPE":"U","NORAD_CAT_ID":67651,"ELEMENT_SET_NO":999,"REV_AT_EPOCH":450,"BSTAR":0.0011634,"MEAN_MOTION_DOT":0.00177624,"MEAN_MOTION_DDOT":0},{"OBJECT_NAME":"STARLINK-36699","OBJECT_ID":"2026-022E","EPOCH":"2026-03-03T01:14:16.302048","MEAN_MOTION":15.75302558,"ECCENTRICITY":0.0001087,"INCLINATION":97.2831,"RA_OF_ASC_NODE":95.6971,"ARG_OF_PERICENTER":108.3939,"MEAN_ANOMALY":251.7444,"EPHEMERIS_TYPE":0,"CLASSIFICATION_TYPE":"U","NORAD_CAT_ID":67652,"ELEMENT_SET_NO":999,"REV_AT_EPOCH":450,"BSTAR":0.0021462,"MEAN_MOTION_DOT":0.00334489,"MEAN_MOTION_DDOT":0},{"OBJECT_NAME":"STARLINK-36694","OBJECT_ID":"2026-022F","EPOCH":"2026-03-03T01:11:13.335360","MEAN_MOTION":15.75347416,"ECCENTRICITY":3.75e-5,"INCLINATION":97.2809,"RA_OF_ASC_NODE":95.698,"ARG_OF_PERICENTER":3.8526,"MEAN_ANOMALY":356.2742,"EPHEMERIS_TYPE":0,"CLASSIFICATION_TYPE":"U","NORAD_CAT_ID":67653,"ELEMENT_SET_NO":999,"REV_AT_EPOCH":450,"BSTAR":0.0015297,"MEAN_MOTION_DOT":0.0023606,"MEAN_MOTION_DDOT":0},{"OBJECT_NAME":"STARLINK-36620","OBJECT_ID":"2026-022G","EPOCH":"2026-03-03T01:11:13.502112","MEAN_MOTION":15.74559675,"ECCENTRICITY":0.0003858,"INCLINATION":97.281,"RA_OF_ASC_NODE":95.6976,"ARG_OF_PERICENTER":24.6735,"MEAN_ANOMALY":335.4714,"EPHEMERIS_TYPE":0,"CLASSIFICATION_TYPE":"U","NORAD_CAT_ID":67654,"ELEMENT_SET_NO":999,"REV_AT_EPOCH":450,"BSTAR":0.0017145,"MEAN_MOTION_DOT":0.00256426,"MEAN_MOTION_DDOT":0},{"OBJECT_NAME":"STARLINK-36720","OBJECT_ID":"2026-022H","EPOCH":"2026-03-03T01:08:10.443840","MEAN_MOTION":15.75301509,"ECCENTRICITY":0.000214,"INCLINATION":97.2834,"RA_OF_ASC_NODE":95.7016,"ARG_OF_PERICENTER":129.3368,"MEAN_ANOMALY":230.8087,"EPHEMERIS_TYPE":0,"CLASSIFICATION_TYPE":"U","NORAD_CAT_ID":67655,"ELEMENT_SET_NO":999,"REV_AT_EPOCH":450,"BSTAR":0.0017506,"MEAN_MOTION_DOT":0.00270736,"MEAN_MOTION_DDOT":0},{"OBJECT_NAME":"STARLINK-36688","OBJECT_ID":"2026-022J","EPOCH":"2026-03-03T01:07:09.376320","MEAN_MOTION":15.75311607,"ECCENTRICITY":0.0001809,"INCLINATION":97.2839,"RA_OF_ASC_NODE":95.7025,"ARG_OF_PERICENTER":138.2611,"MEAN_ANOMALY":221.8792,"EPHEMERIS_TYPE":0,"CLASSIFICATION_TYPE":"U","NORAD_CAT_ID":67656,"ELEMENT_SET_NO":999,"REV_AT_EPOCH":450,"BSTAR":0.0019198,"MEAN_MOTION_DOT":0.00298013,"MEAN_MOTION_DDOT":0},{"OBJECT_NAME":"STARLINK-36706","OBJECT_ID":"2026-022K","EPOCH":"2026-03-03T01:05:07.423584","MEAN_MOTION":15.75373069,"ECCENTRICITY":0.0002333,"INCLINATION":97.2827,"RA_OF_ASC_NODE":95.7032,"ARG_OF_PERICENTER":135.9598,"MEAN_ANOMALY":224.1854,"EPHEMERIS_TYPE":0,"CLASSIFICATION_TYPE":"U","NORAD_CAT_ID":67657,"ELEMENT_SET_NO":999,"REV_AT_EPOCH":450,"BSTAR":0.002588,"MEAN_MOTION_DOT":0.0040814,"MEAN_MOTION_DDOT":0},{"OBJECT_NAME":"STARLINK-36701","OBJECT_ID":"2026-022L","EPOCH":"2026-03-03T01:03:35.804160","MEAN_MOTION":15.75252047,"ECCENTRICITY":0.0001799,"INCLINATION":97.284,"RA_OF_ASC_NODE":95.707,"ARG_OF_PERICENTER":122.02,"MEAN_ANOMALY":238.124,"EPHEMERIS_TYPE":0,"CLASSIFICATION_TYPE":"U","NORAD_CAT_ID":67658,"ELEMENT_SET_NO":999,"REV_AT_EPOCH":450,"BSTAR":0.0012532,"MEAN_MOTION_DOT":0.00191554,"MEAN_MOTION_DDOT":0},{"OBJECT_NAME":"STARLINK-36642","OBJECT_ID":"2026-022M","EPOCH":"2026-03-03T01:02:04.488864","MEAN_MOTION":15.75296666,"ECCENTRICITY":0.0001269,"INCLINATION":97.2833,"RA_OF_ASC_NODE":95.7078,"ARG_OF_PERICENTER":132.2511,"MEAN_ANOMALY":227.8862,"EPHEMERIS_TYPE":0,"CLASSIFICATION_TYPE":"U","NORAD_CAT_ID":67659,"ELEMENT_SET_NO":999,"REV_AT_EPOCH":450,"BSTAR":0.0017033,"MEAN_MOTION_DOT":0.00263131,"MEAN_MOTION_DDOT":0},{"OBJECT_NAME":"STARLINK-36673","OBJECT_ID":"2026-022N","EPOCH":"2026-03-03T01:00:02.564640","MEAN_MOTION":15.75301478,"ECCENTRICITY":0.000184,"INCLINATION":97.2831,"RA_OF_ASC_NODE":95.7091,"ARG_OF_PERICENTER":134.6677,"MEAN_ANOMALY":225.4739,"EPHEMERIS_TYPE":0,"CLASSIFICATION_TYPE":"U","NORAD_CAT_ID":67660,"ELEMENT_SET_NO":999,"REV_AT_EPOCH":450,"BSTAR":0.0017533,"MEAN_MOTION_DOT":0.00271167,"MEAN_MOTION_DDOT":0},{"OBJECT_NAME":"STARLINK-36674","OBJECT_ID":"2026-022P","EPOCH":"2026-03-03T00:58:00.679296","MEAN_MOTION":15.75310327,"ECCENTRICITY":0.0001593,"INCLINATION":97.2835,"RA_OF_ASC_NODE":95.7113,"ARG_OF_PERICENTER":136.3093,"MEAN_ANOMALY":223.8298,"EPHEMERIS_TYPE":0,"CLASSIFICATION_TYPE":"U","NORAD_CAT_ID":67661,"ELEMENT_SET_NO":999,"REV_AT_EPOCH":450,"BSTAR":0.0021645,"MEAN_MOTION_DOT":0.00337559,"MEAN_MOTION_DDOT":0},{"OBJECT_NAME":"STARLINK-36700","OBJECT_ID":"2026-022Q","EPOCH":"2026-03-03T00:54:57.555360","MEAN_MOTION":15.7533583,"ECCENTRICITY":0.0001249,"INCLINATION":97.2826,"RA_OF_ASC_NODE":95.7137,"ARG_OF_PERICENTER":133.2144,"MEAN_ANOMALY":226.9226,"EPHEMERIS_TYPE":0,"CLASSIFICATION_TYPE":"U","NORAD_CAT_ID":67662,"ELEMENT_SET_NO":999,"REV_AT_EPOCH":450,"BSTAR":0.0023664,"MEAN_MOTION_DOT":0.00370949,"MEAN_MOTION_DDOT":0},{"OBJECT_NAME":"STARLINK-36675","OBJECT_ID":"2026-022R","EPOCH":"2026-03-03T00:56:59.484768","MEAN_MOTION":15.75341047,"ECCENTRICITY":0.0001869,"INCLINATION":97.2825,"RA_OF_ASC_NODE":95.7116,"ARG_OF_PERICENTER":132.4232,"MEAN_ANOMALY":227.7192,"EPHEMERIS_TYPE":0,"CLASSIFICATION_TYPE":"U","NORAD_CAT_ID":67663,"ELEMENT_SET_NO":999,"REV_AT_EPOCH":450,"BSTAR":0.0024331,"MEAN_MOTION_DOT":0.00381975,"MEAN_MOTION_DDOT":0},{"OBJECT_NAME":"STARLINK-36404","OBJECT_ID":"2026-022S","EPOCH":"2026-03-03T00:52:24.893472","MEAN_MOTION":15.75284603,"ECCENTRICITY":0.0001151,"INCLINATION":97.283,"RA_OF_ASC_NODE":95.7151,"ARG_OF_PERICENTER":100.1781,"MEAN_ANOMALY":259.9614,"EPHEMERIS_TYPE":0,"CLASSIFICATION_TYPE":"U","NORAD_CAT_ID":67664,"ELEMENT_SET_NO":999,"REV_AT_EPOCH":450,"BSTAR":0.0025534,"MEAN_MOTION_DOT":0.00400811,"MEAN_MOTION_DDOT":0}]
