STARLINK-36719          
1 67648U 26022A   26062.05581151  .00167304  00000+0  10980-2 0  9995
2 67648  97.2823  95.6902 0000615  90.0049 270.1287 15.75247645  4501
STARLINK-36342          
1 67649U 26022B   26062.05510647  .00127759  00000+0  84307-3 0  9993
2 67649  97.2832  95.6918 0001311  92.0880 268.0535 15.75234005  4506
STARLINK-36703          
1 67650U 26022C   26062.05404630  .00178193  00000+0  11671-2 0  9990
2 67650  97.2825  95.6922 0001361  95.9088 264.2333 15.75263156  4505
STARLINK-36696          
1 67651U 26022D   26062.05228250  .00177624  00000+0  11634-2 0  9990
2 67651  97.2825  95.6950 0001407  92.8378 267.3048 15.75263482  4505
STARLINK-36699          
1 67652U 26022E   26062.05157757  .00334489  00000+0  21462-2 0  9998
2 67652  97.2831  95.6971 0001087 108.3939 251.7444 15.75302558  4501
STARLINK-36694          
1 67653U 26022F   26062.04945990  .00236060  00000+0  15297-2 0  9997
2 67653  97.2809  95.6980 0000375   3.8526 356.2742 15.75347416  4501
STARLINK-36620          
1 67654U 26022G   26062.04946183  .00256426  00000+0  17145-2 0  9995
2 67654  97.2810  95.6976 0003858  24.6735 335.4714 15.74559675  4500
STARLINK-36720          
1 67655U 26022H   26062.04734310  .00270736  00000+0  17506-2 0  9994
2 67655  97.2834  95.7016 0002140 129.3368 230.8087 15.75301509  4504
STARLINK-36688          
1 67656U 26022J   26062.04663630  .00298013  00000+0  19198-2 0  9998
2 67656  97.2839  95.7025 0001809 138.2611 221.8792 15.75311607  4504
STARLINK-36706          
1 67657U 26022K   26062.04522481  .00408140  00000+0  25880-2 0  9996
2 67657  97.2827  95.7032 0002333 135.9598 224.1854 15.75373069  4506
STARLINK-36701          
1 67658U 26022L   26062.04416440  .00191554  00000+0  12532-2 0  9992
2 67658  97.2840  95.7070 0001799 122.0200 238.1240 15.75252047  4502
STARLINK-36642          
1 67659U 26022M   26062.04310751  .00263131  00000+0  17033-2 0  9993
2 67659  97.2833  95.7078 0001269 132.2511 227.8862 15.75296666  4503
STARLINK-36673          
1 67660U 26022N   26062.04169635  .00271167  00000+0  17533-2 0  9991
2 67660  97.2831  95.7091 0001840 134.6677 225.4739 15.75301478  4507
STARLINK-36674          
1 67661U 26022P   26062.04028564  .00337559  00000+0  21645-2 0  9994
2 67661  97.2835  95.7113 0001593 136.3093 223.8298 15.75310327  4508
STARLINK-36700          
1 67662U 26022Q   26062.03816615  .00370949  00000+0  23664-2 0  9999
2 67662  97.2826  95.7137 0001249 133.2144 226.9226 15.75335830  4507
STARLINK-36675          
1 67663U 26022R   26062.03957737  .00381975  00000+0  24331-2 0  9994
2 67663  97.2825  95.7116 0001869 132.4232 227.7192 15.75341047  4509
STARLINK-36404          
1 67664U 26022S   26062.03639923  .00400811  00000+0  25534-2 0  9996
2 67664  97.2830  95.7151 0001151 100.1781 259.9614 15.75284603  4500
